ACS3                    
1 59588U 24077B   24205.60615640  .00000093  00000+0  14362-3 0  9996
2 59588  97.4044 265.3249 0019986 359.0989   1.0123 13.67693218 12389
